BEIDOU-2 IGSO-1 (C06)   
1 36828U 10036A   25140.63985159 -.00000057  00000+0  00000+0 0  9996
2 36828  54.2711 166.5098 0049599 217.3464 191.9467  1.00285081 54299
BEIDOU-2 G4 (C04)       
1 37210U 10057A   25142.57336501 -.00000102  00000+0  00000+0 0  9992
2 37210   2.6775  70.4609 0004531 194.7552 341.6508  1.00271755 53377
BEIDOU-2 IGSO-2 (C07)   
1 37256U 10068A   25141.79195039 -.00000219  00000+0  00000+0 0  9995
2 37256  48.2584 276.6756 0045688 212.3292 140.5614  1.00298142 52866
BEIDOU-2 IGSO-3 (C08)   
1 37384U 11013A   25142.43811758 -.00000207  00000+0  00000+0 0  9990
2 37384  61.8498  43.8549 0030032 178.1989 284.4831  1.00272419 51739
BEIDOU-2 IGSO-4 (C09)   
1 37763U 11038A   25142.53695274  .00000066  00000+0  00000+0 0  9994
2 37763  54.5741 169.1682 0143354 231.0233 127.9338  1.00282630 50720
BEIDOU-2 IGSO-5 (C10)   
1 37948U 11073A   25141.84836311 -.00000176  00000+0  00000+0 0  9993
2 37948  48.3935 276.3753 0104376 219.0943 142.9063  1.00254352 49489
BEIDOU-2 G5 (C05)       
1 38091U 12008A   25142.17268007  .00000067  00000+0  00000+0 0  9998
2 38091   2.5991  71.2619 0009763 267.3937  22.2502  1.00273577 48554
BEIDOU-2 M3 (C11)       
1 38250U 12018A   25141.21134933 -.00000045  00000+0  00000+0 0  9997
2 38250  56.0890 318.0536 0020483 269.7032  90.0645  1.86233561 88993
BEIDOU-2 M4 (C12)       
1 38251U 12018B   25141.14324989 -.00000044  00000+0  00000+0 0  9991
2 38251  55.9926 317.3014 0011403 272.7168  87.1544  1.86231976 88994
BEIDOU-2 M6 (C14)       
1 38775U 12050B   25140.85341566 -.00000006  00000+0  00000+0 0  9993
2 38775  56.1983  75.9027 0014387 344.6750  15.2673  1.86230969 86008
BEIDOU-2 G6 (C02)       
1 38953U 12059A   25142.10628307 -.00000164  00000+0  00000+0 0  9996
2 38953   3.4269  77.5696 0010071 316.6090 328.0855  1.00269068 46124
BEIDOU-3S IGSO-1S (C31) 
1 40549U 15019A   25141.80767331 -.00000180  00000+0  00000+0 0  9994
2 40549  49.9390 300.1658 0039134 191.5446 133.2348  1.00283565 37140
BEIDOU-3S M2S (C58)     
1 40748U 15037A   25141.88313012 -.00000049  00000+0  00000+0 0  9990
2 40748  55.2141 315.4839 0008056 257.3232 102.5852  1.86229107 66831
BEIDOU-3S M1S (C57)     
1 40749U 15037B   25141.06662657 -.00000045  00000+0  00000+0 0  9999
2 40749  55.2114 315.5039 0003713  25.8214 334.1970  1.86253743 66824
BEIDOU-3S IGSO-2S (C56) 
1 40938U 15053A   25140.65229007 -.00000157  00000+0  00000+0 0  9993
2 40938  49.8314 263.4431 0058861 187.6538 118.4765  1.00273500 35417
BEIDOU-2 IGSO-6 (C13)   
1 41434U 16021A   25141.71543117 -.00000168  00000+0  00000+0 0  9992
2 41434  59.6732  41.9467 0053965 229.7689 318.8764  1.00291566 33544
BEIDOU-2 G7 (C03)       
1 41586U 16037A   25141.79490095 -.00000344  00000+0  00000+0 0  9997
2 41586   1.7001  68.6006 0009763 341.7672 226.0171  1.00268996 32854
BEIDOU-3 M1 (C19)       
1 43001U 17069A   25141.15605033 -.00000007  00000+0  00000+0 0  9993
2 43001  56.3473  76.0333 0011519 314.6783  45.2131  1.86231182 51306
BEIDOU-3 M2 (C20)       
1 43002U 17069B   25142.16788055 -.00000017  00000+0  00000+0 0  9993
2 43002  56.3477  76.0352 0009704 337.2923  22.6465  1.86230641 51311
BEIDOU-3 M7 (C27)       
1 43107U 18003A   25140.83982656 -.00000046  00000+0  00000+0 0  9995
2 43107  54.6735 315.9619 0004899  80.1208 279.9350  1.86232435 50048
BEIDOU-3 M8 (C28)       
1 43108U 18003B   25141.85693593 -.00000051  00000+0  00000+0 0  9994
2 43108  54.6655 315.9105 0002429 265.7141  94.2571  1.86230873 50074
BEIDOU-3 M4 (C22)       
1 43207U 18018A   25141.22423373 -.00000008  00000+0  00000+0 0  9990
2 43207  56.3061  76.1084 0007527   0.5949 359.3907  1.86231088 49447
BEIDOU-3 M3 (C21)       
1 43208U 18018B   25142.36466996 -.00000018  00000+0  00000+0 0  9996
2 43208  56.3065  76.0747 0009448 327.4997  32.4231  1.86230985 49461
BEIDOU-3 M9 (C29)       
1 43245U 18029A   25142.04577736 -.00000051  00000+0  00000+0 0  9996
2 43245  54.5461 313.5948 0000502 119.2022 240.7988  1.86232474 48616
BEIDOU-3 M10 (C30)      
1 43246U 18029B   25142.51492259 -.00000055  00000+0  00000+0 0  9999
2 43246  54.5428 313.6054 0004177  29.1907 330.8273  1.86229015 48617
BEIDOU-2 IGSO-7 (C16)   
1 43539U 18057A   25141.51192236 -.00000055  00000+0  00000+0 0  9996
2 43539  55.1617 166.4507 0089268 236.3657 133.8116  1.00264729 25208
BEIDOU-3 M5 (C23)       
1 43581U 18062A   25141.66633332  .00000067  00000+0  00000+0 0  9994
2 43581  54.1001 195.6158 0004844 278.8461  81.1782  1.86228541 46346
BEIDOU-3 M6 (C24)       
1 43582U 18062B   25142.06747702  .00000071  00000+0  00000+0 0  9992
2 43582  54.0997 195.5915 0004284  10.3670 349.7223  1.86229322 46351
BEIDOU-3 M12 (C26)      
1 43602U 18067A   25141.46609371  .00000068  00000+0  00000+0 0  9998
2 43602  54.1927 194.3240 0007161  26.1057 334.0094  1.86227802 45822
BEIDOU-3 M11 (C25)      
1 43603U 18067B   25142.13703077  .00000075  00000+0  00000+0 0  9990
2 43603  54.1900 194.2656 0003952  10.1838 349.9051  1.86227269 45867
BEIDOU-3 M13 (C32)      
1 43622U 18072A   25142.09577805 -.00000017  00000+0  00000+0 0  9997
2 43622  56.2796  75.6007 0008084 316.4205  43.4981  1.86231278 45376
BEIDOU-3 M14 (C33)      
1 43623U 18072B   25141.96125887 -.00000016  00000+0  00000+0 0  9991
2 43623  56.2814  75.5987 0006423 342.0228  17.9374  1.86231286 45369
BEIDOU-3 M16 (C35)      
1 43647U 18078A   25141.04747823 -.00000046  00000+0  00000+0 0  9995
2 43647  54.4430 313.6995 0007520  31.4771 328.5656  1.86232210 44850
BEIDOU-3 M15 (C34)      
1 43648U 18078B   25139.56587843 -.00000042  00000+0  00000+0 0  9990
2 43648  54.4402 313.7527 0004640  45.5260 314.5096  1.86232254 44841
BEIDOU-3 G1 (C59)       
1 43683U 18085A   25135.62074543 -.00000265  00000+0  00000+0 0  9995
2 43683   3.0254  98.8918 0004989  11.3655 126.6744  1.00265207 24070
BEIDOU-3 M17 (C36)      
1 43706U 18093A   25141.33187443  .00000064  00000+0  00000+0 0  9995
2 43706  54.1834 195.5905 0009556 284.2887  75.6837  1.86228278 44249
BEIDOU-3 M18 (C37)      
1 43707U 18093B   25141.73145402  .00000068  00000+0  00000+0 0  9993
2 43707  54.1840 195.5687 0007425 312.3516  47.6651  1.86229719 44243
BEIDOU-3 IGSO-1 (C38)   
1 44204U 19023A   25141.75123832 -.00000231  00000+0  00000+0 0  9998
2 44204  58.1388  41.6948 0020388 224.1615   0.7150  1.00253276 22433
BEIDOU-2 G8 (C01)       
1 44231U 19027A   25141.60681750 -.00000237  00000+0  00000+0 0  9990
2 44231   1.6241  75.0113 0004588 258.0432 269.4968  1.00272627 22157
BEIDOU-3 IGSO-2 (C39)   
1 44337U 19035A   25142.40957947 -.00000048  00000+0  00000+0 0  9999
2 44337  55.2058 162.2935 0036003 210.2828 135.0095  1.00278780 21774
BEIDOU-3 M24 (C46)      
1 44542U 19061A   25142.33927819  .00000074  00000+0  00000+0 0  9991
2 44542  54.4109 195.9097 0007671 353.2315   6.8395  1.86229032 38518
BEIDOU-3 M23 (C45)      
1 44543U 19061B   25141.52359649  .00000066  00000+0  00000+0 0  9993
2 44543  54.4096 195.9059 0004970 332.8267 113.1006  1.86229138 38507
BEIDOU-3 IGSO-3 (C40)   
1 44709U 19073A   25141.79982723 -.00000206  00000+0  00000+0 0  9991
2 44709  55.4730 285.1172 0044470 182.5335 177.3771  1.00253192 20516
BEIDOU-3 M22 (C44)      
1 44793U 19078A   25141.10783268 -.00000047  00000+0  00000+0 0  9990
2 44793  54.2901 313.5879 0006582  39.6262 320.4195  1.86232080 37357
BEIDOU-3 M21 (C43)      
1 44794U 19078B   25141.24069574 -.00000048  00000+0  00000+0 0  9994
2 44794  54.2632 313.5524 0004508  38.2671 321.7623  1.86227703 37357
BEIDOU-3 M19 (C41)      
1 44864U 19090A   25142.30605855 -.00000019  00000+0  00000+0 0  9990
2 44864  56.2137  75.7465 0018802 291.3885 256.6116  1.86231442 36952
BEIDOU-3 M20 (C42)      
1 44865U 19090B   25141.58701608 -.00000012  00000+0  00000+0 0  9996
2 44865  56.2147  75.8044 0016709 304.2154 211.3619  1.86231369 36915
BEIDOU-3 G2 (C60)       
1 45344U 20017A   25141.81990685 -.00000132  00000+0  00000+0 0  9994
2 45344   2.8277  39.8904 0002293   6.0466 208.9747  1.00270838 19342
BEIDOU-3 G3 (C61)       
1 45807U 20040A   25141.39764056 -.00000345  00000+0  00000+0 0  9994
2 45807   1.4987  63.4215 0002148 317.3230 112.2568  1.00273276 18147
BEIDOU-3 G4 (C62)       
1 56564U 23066A   25142.57336501 -.00000103  00000+0  00000+0 0  9990
2 56564   1.2859 291.9531 0005993 179.7222 135.2238  1.00271750  7485
BEIDOU-3 M28 (C50)      
1 58654U 23207A   25141.32059841 -.00000011  00000+0  00000+0 0  9998
2 58654  55.4015  75.5602 0003992 320.2084  39.7473  1.86229713  9547
BEIDOU-3 M26 (C48)      
1 58655U 23207B   25142.19395042 -.00000019  00000+0  00000+0 0  9999
2 58655  55.4042  75.5165 0004221 298.8251  61.1146  1.86231543  9544
BEIDOU-3 M25 (C47)      
1 61186U 24168B   25142.56218115 -.00000055  00000+0  00000+0 0  9995
2 61186  54.8174 315.7837 0003319 300.1907  64.5015  1.86229864  4509
BEIDOU-3 M27 (C49)      
1 61187U 24168C   25141.42589363 -.00000048  00000+0  00000+0 0  9998
2 61187  54.8141 315.8074 0001990  32.5300  65.2247  1.86230002  1962
